NORAD_CAT_ID,OBJECT_NAME,OBJECT_TYPE,EPOCH,MEAN_MOTION,ECCENTRICITY,INCLINATION,RA_OF_ASC_NODE,ARG_OF_PERICENTER,MEAN_ANOMALY,BSTAR,MEAN_MOTION_DOT,MEAN_MOTION_DDOT,TLE_LINE0,TLE_LINE1,TLE_LINE2,SEMIMAJOR_AXIS,PERIOD,APOGEE,PERIGEE,DECAYED
49134.0,STARLINK-3078,PAYLOAD,2023-09-14 10:48:12,14.98326828,0.0002871,70.0005,61.9351,267.8221,92.2609,-2.3187e-05,-3.7e-06,0.0,0 STARLINK-3078,1 49134U 21082E   23257.45013897 -.00000370  00000-0 -23187-4 0  9997,2 49134  70.0005  61.9351 0002871 267.8221  92.2609 14.98326828111288,6950.203,96.107,574.063,570.072,0.0
49134.0,STARLINK-3078,PAYLOAD,2023-09-14 12:24:20,14.98326095,0.0002875,70.0005,61.7667,267.8102,92.2728,-3.0175e-05,-4.53e-06,0.0,0 STARLINK-3078,1 49134U 21082E   23257.51689981 -.00000453  00000-0 -30175-4 0  9994,2 49134  70.0005  61.7667 0002875 267.8102  92.2728 14.98326095111297,6950.205,96.107,574.068,570.072,0.0
49134.0,STARLINK-3078,PAYLOAD,2023-09-14 20:25:00,14.98323265,0.0002934,70.0006,60.9253,270.0537,90.0286,-5.3176e-05,-7.27e-06,0.0,0 STARLINK-3078,1 49134U 21082E   23257.85070300 -.00000727  00000-0 -53176-4 0  9990,2 49134  70.0006  60.9253 0002934 270.0537  90.0286 14.98323265111341,6950.214,96.107,574.118,570.04,0.0
49134.0,STARLINK-3078,PAYLOAD,2023-09-15 10:50:12,14.98332549,0.0003086,70.0003,59.4103,271.9777,88.1028,1.7808e-05,1.19e-06,0.0,0 STARLINK-3078,1 49134U 21082E   23258.45153594  .00000119  00000-0  17808-4 0  9999,2 49134  70.0003  59.4103 0003086 271.9777  88.1028 14.98332549111437,6950.185,96.107,574.195,569.905,0.0
49134.0,STARLINK-3078,PAYLOAD,2023-09-15 14:02:28,14.98333102,0.0003095,70.0003,59.0736,271.8451,88.2353,2.5069e-05,2.06e-06,0.0,0 STARLINK-3078,1 49134U 21082E   23258.58505499  .00000206  00000-0  25069-4 0  9993,2 49134  70.0003  59.0736 0003095 271.8451  88.2353 14.98333102111453,6950.183,96.107,574.199,569.897,0.0
49134.0,STARLINK-3078,PAYLOAD,2023-09-16 14:04:29,14.98326146,0.0003132,70.0007,56.5487,272.0306,88.0495,9.0485e-05,9.87e-06,0.0,0 STARLINK-3078,1 49134U 21082E   23259.58645717  .00000987  00000-0  90485-4 0  9992,2 49134  70.0007  56.5487 0003132 272.0306  88.0495 14.98326146111608,6950.205,96.107,574.247,569.893,0.0
49134.0,STARLINK-3078,PAYLOAD,2023-09-16 17:16:45,14.98327658,0.0003126,70.0008,56.2118,271.3859,88.6942,0.00010404,1.149e-05,0.0,0 STARLINK-3078,1 49134U 21082E   23259.71997613  .00001149  00000-0  10404-3 0  9995,2 49134  70.0008  56.2118 0003126 271.3859  88.6942 14.98327658111629,6950.2,96.107,574.238,569.893,0.0
49134.0,STARLINK-3078,PAYLOAD,2023-09-17 12:30:22,14.98333572,0.0003038,70.0012,54.1917,271.7808,88.3003,2.9764e-05,2.62e-06,0.0,0 STARLINK-3078,1 49134U 21082E   23260.52109466  .00000262  00000-0  29764-4 0  9992,2 49134  70.0012  54.1917 0003038 271.7808  88.3003 14.98333572111748,6950.182,96.107,574.158,569.935,0.0
49134.0,STARLINK-3078,PAYLOAD,2023-09-17 17:18:46,14.98335654,0.0003058,70.0011,53.6869,271.2085,88.8724,3.7388e-05,3.53e-06,0.0,0 STARLINK-3078,1 49134U 21082E   23260.72137258  .00000353  00000-0  37388-4 0  9996,2 49134  70.0011  53.6869 0003058 271.2085  88.8724 14.98335654111772,6950.175,96.107,574.166,569.915,0.0
49134.0,STARLINK-3078,PAYLOAD,2023-09-18 10:56:15,14.98329714,0.0003015,70.0013,51.8355,271.1599,88.9214,-5.5732e-06,-1.59e-06,0.0,0 STARLINK-3078,1 49134U 21082E   23261.45573648 -.00000159  00000-0 -55732-5 0  9994,2 49134  70.0013  51.8355 0003015 271.1599  88.9214 14.98329714111883,6950.194,96.107,574.154,569.963,0.0
49134.0,STARLINK-3078,PAYLOAD,2023-09-18 14:08:31,14.98329356,0.000302,70.0013,51.4989,271.1154,88.9659,-9.5288e-06,-2.07e-06,0.0,0 STARLINK-3078,1 49134U 21082E   23261.58925676 -.00000207  00000-0 -95288-5 0  9994,2 49134  70.0013  51.4989 0003020 271.1154  88.9659 14.98329356111903,6950.195,96.107,574.159,569.961,0.0
49134.0,STARLINK-3078,PAYLOAD,2023-09-18 18:56:56,14.98328449,0.0002974,70.0014,50.9943,270.2496,89.8322,-5.7241e-07,-1e-06,0.0,0 STARLINK-3078,1 49134U 21082E   23261.78953722 -.00000100  00000-0 -57241-6 0  9999,2 49134  70.0014  50.9943 0002974 270.2496  89.8322 14.98328449111936,6950.198,96.107,574.13,569.996,0.0
49134.0,STARLINK-3078,PAYLOAD,2023-09-19 10:58:16,14.98336581,0.0003037,70.0012,49.3109,269.003,91.0781,5.9631e-05,6.19e-06,0.0,0 STARLINK-3078,1 49134U 21082E   23262.45713006  .00000619  00000-0  59631-4 0  9999,2 49134  70.0012  49.3109 0003037 269.0030  91.0781 14.98336581112033,6950.173,96.107,574.148,569.927,0.0
49134.0,STARLINK-3078,PAYLOAD,2023-09-20 12:36:25,14.98326616,0.0002951,70.0006,46.618,266.1007,93.9814,-4.6046e-05,-6.42e-06,0.0,0 STARLINK-3078,1 49134U 21082E   23263.52529787 -.00000642  00000-0 -46046-4 0  9993,2 49134  70.0006  46.6180 0002951 266.1007  93.9814 14.98326616112194,6950.203,96.107,574.119,570.017,0.0
49134.0,STARLINK-3078,PAYLOAD,2023-09-20 14:12:33,14.98328647,0.0002867,70.0012,46.4506,266.3749,93.7082,-0.00011811,-1.502e-05,0.0,0 STARLINK-3078,1 49134U 21082E   23263.59205864 -.00001502  00000-0 -11811-3 0  9994,2 49134  70.0012  46.4506 0002867 266.3749  93.7082 14.98328647112205,6950.197,96.107,574.055,570.069,0.0
49134.0,STARLINK-3078,PAYLOAD,2023-09-20 19:00:58,14.98320399,0.0002841,70.0017,45.9452,261.4965,98.5872,-6.3454e-05,-8.5e-06,0.0,0 STARLINK-3078,1 49134U 21082E   23263.79234340 -.00000850  00000-0 -63454-4 0  9993,2 49134  70.0017  45.9452 0002841 261.4965  98.5872 14.98320399112231,6950.223,96.108,574.062,570.113,0.0
49134.0,STARLINK-3078,PAYLOAD,2023-09-21 11:02:18,14.98332679,0.0003149,70.0011,44.2608,268.4586,91.6213,1.3036e-05,6.3e-07,0.0,0 STARLINK-3078,1 49134U 21082E   23264.45993534  .00000063  00000-0  13036-4 0  9999,2 49134  70.0011  44.2608 0003149 268.4586  91.6213 14.98332679112336,6950.185,96.107,574.238,569.861,0.0
49134.0,STARLINK-3078,PAYLOAD,2023-09-21 12:38:26,14.98333514,0.000307,70.0013,44.093,268.2786,91.8021,2.2045e-06,-6.7e-07,0.0,0 STARLINK-3078,1 49134U 21082E   23264.52669521 -.00000067  00000-0  22045-5 0  9999,2 49134  70.0013  44.0930 0003070 268.2786  91.8021 14.98333514112346,6950.182,96.107,574.181,569.913,0.0
49134.0,STARLINK-3078,PAYLOAD,2023-09-21 19:02:58,14.98337813,0.0002898,70.0018,43.4208,264.8685,95.2143,3.2729e-05,2.98e-06,0.0,0 STARLINK-3078,1 49134U 21082E   23264.79373139  .00000298  00000-0  32729-4 0  9999,2 49134  70.0018  43.4208 0002898 264.8685  95.2143 14.98337813112382,6950.169,96.106,574.048,570.02,0.0
49134.0,STARLINK-3078,PAYLOAD,2023-09-22 11:04:19,14.98328605,0.0003042,70.0013,41.735,262.8994,97.1819,0.00016295,1.852e-05,0.0,0 STARLINK-3078,1 49134U 21082E   23265.46133276  .00001852  00000-0  16295-3 0  9996,2 49134  70.0013  41.7350 0003042 262.8994  97.1819 14.98328605112480,6950.197,96.107,574.176,569.948,0.0
49134.0,STARLINK-3078,PAYLOAD,2023-09-22 12:40:27,14.98327082,0.0002932,70.0014,41.5667,262.1374,97.9452,0.00019736,2.262e-05,0.0,0 STARLINK-3078,1 49134U 21082E   23265.52809296  .00002262  00000-0  19736-3 0  9994,2 49134  70.0014  41.5667 0002932 262.1374  97.9452 14.98327082112492,6950.202,96.107,574.105,570.029,0.0
49134.0,STARLINK-3078,PAYLOAD,2023-09-22 19:04:59,14.98334216,0.0003029,70.0015,40.8938,263.7418,96.3396,0.00021341,2.455e-05,0.0,0 STARLINK-3078,1 49134U 21082E   23265.79512843  .00002455  00000-0  21341-3 0  9991,2 49134  70.0015  40.8938 0003029 263.7418  96.3396 14.98334216112532,6950.18,96.107,574.15,569.94,0.0
49134.0,STARLINK-3078,PAYLOAD,2023-09-23 12:42:28,14.98339463,0.0002919,70.0021,39.043,270.3554,89.727,-0.00011005,-1.406e-05,0.0,0 STARLINK-3078,1 49134U 21082E   23266.52949192 -.00001406  00000-0 -11005-3 0  9997,2 49134  70.0021  39.0430 0002919 270.3554  89.7270 14.98339463112646,6950.164,96.106,574.057,570.0,0.0
49134.0,STARLINK-3078,PAYLOAD,2023-09-24 11:08:21,14.98309136,0.000306,70.0026,36.6887,262.9156,97.1655,0.00045413,5.327e-05,0.0,0 STARLINK-3078,1 49134U 21082E   23267.46413498  .00005327  00000-0  45413-3 0  9990,2 49134  70.0026  36.6887 0003060 262.9156  97.1655 14.98309136112782,6950.257,96.108,574.249,569.996,0.0
49134.0,STARLINK-3078,PAYLOAD,2023-09-24 14:20:37,14.98289427,0.0003235,70.0025,36.3521,260.2192,99.8602,0.00082043,9.7e-05,0.0,0 STARLINK-3078,1 49134U 21082E   23267.59766199  .00009700  00000-0  82043-3 0  9992,2 49134  70.0025  36.3521 0003235 260.2192  99.8602 14.98289427112802,6950.318,96.11,574.432,569.935,0.0
49134.0,STARLINK-3078,PAYLOAD,2023-09-24 19:09:00,14.98354654,0.0002774,70.0025,35.8471,261.6117,98.4727,-0.0002696,-3.31e-05,0.0,0 STARLINK-3078,1 49134U 21082E   23267.79792044 -.00003310  00000-0 -26960-3 0  9991,2 49134  70.0025  35.8471 0002774 261.6117  98.4727 14.98354654112830,6950.117,96.105,573.91,570.054,0.0
49134.0,STARLINK-3078,PAYLOAD,2023-09-25 01:33:33,14.98334449,0.0002906,70.0024,35.1721,270.6849,89.3977,-5.0301e-05,-6.93e-06,0.0,0 STARLINK-3078,1 49134U 21082E   23268.06496873 -.00000693  00000-0 -50301-4 0  9991,2 49134  70.0024  35.1721 0002906 270.6849  89.3977 14.98334449112879,6950.179,96.107,574.064,570.024,0.0
49134.0,STARLINK-3078,PAYLOAD,2023-09-25 14:22:37,14.98333725,0.0002854,70.0023,33.8255,264.6205,95.4629,8.6164e-05,9.35e-06,0.0,0 STARLINK-3078,1 49134U 21082E   23268.59904523  .00000935  00000-0  86164-4 0  9998,2 49134  70.0023  33.8255 0002854 264.6205  95.4629 14.98333725112953,6950.181,96.107,574.03,570.063,0.0
49134.0,STARLINK-3078,PAYLOAD,2023-09-25 17:34:53,14.98324554,0.000296,70.0024,33.489,265.5532,94.5288,0.00031689,3.69e-05,0.0,0 STARLINK-3078,1 49134U 21082E   23268.73256584  .00003690  00000-0  31689-3 0  9993,2 49134  70.0024  33.4890 0002960 265.5532  94.5288 14.98324554112979,6950.21,96.107,574.132,570.017,0.0
49134.0,STARLINK-3078,PAYLOAD,2023-09-26 12:48:31,14.98323165,0.0003054,70.0016,31.4695,262.6317,97.4495,-6.7354e-05,-8.96e-06,0.0,0 STARLINK-3078,1 49134U 21082E   23269.53369640 -.00000896  00000-0 -67354-4 0  9996,2 49134  70.0016  31.4695 0003054 262.6317  97.4495 14.98323165113098,6950.214,96.107,574.202,569.956,0.0
